OBJECT_NAME,OBJECT_ID,EPOCH,MEAN_MOTION,ECCENTRICITY,INCLINATION,RA_OF_ASC_NODE,ARG_OF_PERICENTER,MEAN_ANOMALY,EPHEMERIS_TYPE,CLASSIFICATION_TYPE,NORAD_CAT_ID,ELEMENT_SET_NO,REV_AT_EPOCH,BSTAR,MEAN_MOTION_DOT,MEAN_MOTION_DDOT
STARLINK-30888,2023-177V,2026-07-08T20:53:28.140576,15.27596110,.00038206,43.0099,25.9544,257.8287,102.2137,0,U,58370,999,14677,.42198439E-4,.899E-5,0
STARLINK-30859,2023-177W,2026-07-08T22:03:47.555424,15.27589167,.00026571,43.0046,26.2966,276.4429,83.6120,0,U,58371,999,14677,.12589461E-3,.3204E-4,0
STARLINK-30884,2023-177X,2026-07-08T22:05:40.015392,15.27590085,.00002991,43.0005,26.3330,72.3382,287.7502,0,U,58372,999,14676,-.1419292E-5,-.301E-5,0
STARLINK-30852,2023-177Y,2026-07-08T21:02:44.310336,15.27590652,.00009228,43.0030,25.9807,226.8404,133.2370,0,U,58373,999,14676,.52420979E-4,.1181E-4,0
STARLINK-30911,2023-178A,2026-07-08T07:40:12.738432,15.34387389,.00012105,53.1570,158.4015,107.7233,252.3902,0,U,58374,999,14838,.18260599E-3,.5796E-4,0
STARLINK-30894,2023-178B,2026-07-08T14:49:52.956192,15.34398583,.00007643,53.1599,157.4276,207.8886,152.2076,0,U,58375,999,14836,.17232763E-3,.545E-4,0
STARLINK-30910,2023-178C,2026-07-08T07:58:23.064096,15.34377244,.0001224,53.1582,158.4856,90.1627,269.9516,0,U,58376,999,14839,.12359195E-3,.3799E-4,0
STARLINK-30914,2023-178D,2026-07-08T07:46:15.653856,15.34379794,.00011027,53.1583,158.4198,99.6692,260.4435,0,U,58377,999,14839,.12389041E-3,.3809E-4,0
STARLINK-30920,2023-178E,2026-07-08T14:51:00.802656,15.30333293,.00020244,53.1604,146.8015,81.8882,278.2349,0,U,58378,999,14858,.12414742E-2,.36745E-3,0
STARLINK-30882,2023-178F,2026-07-08T14:40:49.494144,15.34386299,.00013544,53.1592,157.3839,100.5088,259.6067,0,U,58379,999,14843,.15312238E-3,.4798E-4,0
STARLINK-30915,2023-178G,2026-07-08T21:06:18.161568,15.34410141,.00012207,53.1601,67.5343,72.4982,287.6154,0,U,58380,999,14968,-.6138576E-4,-.245E-4,0
STARLINK-30923,2023-178H,2026-07-08T15:31:04.470528,15.35050179,.00028677,53.1598,157.5657,49.0932,311.0319,0,U,58381,999,14836,.31356351E-3,.10452E-3,0
STARLINK-30927,2023-178J,2026-07-08T07:03:57.368736,15.34384771,.0001302,53.1595,158.9572,81.2552,278.8598,0,U,58382,999,14836,.44813344E-4,.1137E-4,0
STARLINK-30921,2023-178K,2026-07-08T22:20:42.229248,15.34394715,.00005214,53.1596,155.8226,76.7633,283.3427,0,U,58383,999,14846,.49423976E-4,.1294E-4,0
STARLINK-30825,2023-178L,2026-07-08T07:49:17.582016,15.34391292,.00012054,53.1582,158.4169,111.7845,248.3286,0,U,58384,999,14839,.13774651E-3,.4279E-4,0
STARLINK-30930,2023-178M,2026-07-08T15:10:58.552032,15.34404204,.00003276,53.1586,156.8078,105.7050,254.3989,0,U,58385,999,14831,-.98333681E-4,-.3697E-4,0
STARLINK-30929,2023-178N,2026-07-08T15:20:09.656160,15.34382373,.00010562,53.1582,157.3482,90.1452,269.9672,0,U,58386,999,14841,.47458956E-4,.1227E-4,0
STARLINK-30898,2023-178P,2026-07-08T15:08:05.036640,15.34386611,.00011038,53.1593,157.3729,114.9506,245.1611,0,U,58387,999,14843,.14832253E-3,.4636E-4,0
STARLINK-30913,2023-178Q,2026-07-08T14:46:53.519808,15.34381538,.00012672,53.1588,157.4108,120.7885,239.3243,0,U,58388,999,14843,.15506028E-3,.4863E-4,0
STARLINK-30938,2023-178R,2026-07-08T22:30:28.403136,15.34398770,.00009458,53.1610,157.2773,104.4269,255.6839,0,U,58389,999,14846,.73131486E-4,.2095E-4,0
STARLINK-30868,2023-178S,2026-07-08T22:26:45.845376,15.34396110,.00010664,53.1594,155.8479,84.9693,275.1432,0,U,58390,999,14848,.52017858E-4,.1382E-4,0
STARLINK-30916,2023-178T,2026-07-08T14:58:59.293632,15.34389259,.00007692,53.1578,157.3602,79.5180,280.5909,0,U,58391,999,14843,.10301507E-3,.3105E-4,0
STARLINK-30939,2023-178V,2026-07-08T08:07:28.479648,15.34388077,.00012798,53.1560,158.5206,147.3919,212.7163,0,U,58393,999,14826,.18556422E-3,.5896E-4,0
STARLINK-30887,2023-178W,2026-07-08T15:14:07.866528,15.34404966,.00010286,53.1566,157.3529,64.9542,295.1568,0,U,58394,999,14841,.25534834E-3,.8262E-4,0
STARLINK-30934,2023-178X,2026-07-08T14:43:49.080000,15.34429286,.00024422,53.1598,157.4713,75.8658,284.2616,0,U,58395,999,14836,.10137782E-3,.3053E-4,0
STARLINK-30964,2023-180A,2026-07-08T02:44:18.500064,15.27581661,.00015061,43.0028,92.4349,282.3037,77.7646,0,U,58402,999,14604,-.26451872E-4,-.99E-5,0
STARLINK-30844,2023-180B,2026-07-08T03:19:28.338816,15.27577345,.00015762,43.0038,92.6217,258.9565,101.1110,0,U,58403,999,14592,.13220285E-3,.3377E-4,0
STARLINK-30876,2023-180C,2026-07-08T01:39:45.809280,15.27594507,.0000985,43.0045,92.9569,307.9778,52.0985,0,U,58404,999,14603,.91783848E-4,.2265E-4,0
STARLINK-30952,2023-180D,2026-07-08T10:49:55.058880,15.27571276,.00021805,42.9982,90.6639,84.2235,275.8866,0,U,58405,999,14598,.1402998E-5,-.224E-5,0
STARLINK-30925,2023-180E,2026-07-08T10:53:35.216448,15.27583778,.00025852,43.0063,90.6834,261.6813,98.3746,0,U,58406,999,14597,-.43290675E-4,-.1454E-4,0
