STARLINK-30888          
1 58370U 23177V   26189.87046459  .00000899  00000+0  42198-4 0  9995
2 58370  43.0099  25.9544 0003820 257.8287 102.2137 15.27596110146779
STARLINK-30859          
1 58371U 23177W   26189.91930041  .00003204  00000+0  12589-3 0  9993
2 58371  43.0046  26.2966 0002657 276.4429  83.6120 15.27589167146774
STARLINK-30884          
1 58372U 23177X   26189.92060203 -.00000301  00000+0 -14193-5 0  9991
2 58372  43.0005  26.3330 0000299  72.3382 287.7502 15.27590085146768
STARLINK-30852          
1 58373U 23177Y   26189.87690174  .00001181  00000+0  52421-4 0  9992
2 58373  43.0030  25.9807 0000922 226.8404 133.2370 15.27590652146763
STARLINK-30911          
1 58374U 23178A   26189.31959188  .00005796  00000+0  18261-3 0  9995
2 58374  53.1570 158.4015 0001210 107.7233 252.3902 15.34387389148389
STARLINK-30894          
1 58375U 23178B   26189.61797403  .00005450  00000+0  17233-3 0  9994
2 58375  53.1599 157.4276 0000764 207.8886 152.2076 15.34398583148364
STARLINK-30910          
1 58376U 23178C   26189.33221139  .00003799  00000+0  12359-3 0  9990
2 58376  53.1582 158.4856 0001224  90.1627 269.9516 15.34377244148399
STARLINK-30914          
1 58377U 23178D   26189.32379229  .00003809  00000+0  12389-3 0  9999
2 58377  53.1583 158.4198 0001102  99.6692 260.4435 15.34379794148399
STARLINK-30920          
1 58378U 23178E   26189.61875929  .00036745  00000+0  12415-2 0  9994
2 58378  53.1604 146.8015 0002024  81.8882 278.2349 15.30333293148583
STARLINK-30882          
1 58379U 23178F   26189.61168396  .00004798  00000+0  15312-3 0  9991
2 58379  53.1592 157.3839 0001354 100.5088 259.6067 15.34386299148435
STARLINK-30915          
1 58380U 23178G   26189.87937687 -.00002450  00000+0 -61386-4 0  9996
2 58380  53.1601  67.5343 0001220  72.4982 287.6154 15.34410141149682
STARLINK-30923          
1 58381U 23178H   26189.64657952  .00010452  00000+0  31356-3 0  9998
2 58381  53.1598 157.5657 0002867  49.0932 311.0319 15.35050179148360
STARLINK-30927          
1 58382U 23178J   26189.29441399  .00001137  00000+0  44813-4 0  9999
2 58382  53.1595 158.9572 0001302  81.2552 278.8598 15.34384771148364
STARLINK-30921          
1 58383U 23178K   26189.93104432  .00001294  00000+0  49424-4 0  9992
2 58383  53.1596 155.8226 0000521  76.7633 283.3427 15.34394715148461
STARLINK-30825          
1 58384U 23178L   26189.32589794  .00004279  00000+0  13775-3 0  9999
2 58384  53.1582 158.4169 0001205 111.7845 248.3286 15.34391292148390
STARLINK-30930          
1 58385U 23178M   26189.63262213 -.00003697  00000+0 -98334-4 0  9998
2 58385  53.1586 156.8078 0000327 105.7050 254.3989 15.34404204148318
STARLINK-30929          
1 58386U 23178N   26189.63900065  .00001227  00000+0  47459-4 0  9990
2 58386  53.1582 157.3482 0001056  90.1452 269.9672 15.34382373148417
STARLINK-30898          
1 58387U 23178P   26189.63061385  .00004636  00000+0  14832-3 0  9999
2 58387  53.1593 157.3729 0001103 114.9506 245.1611 15.34386611148432
STARLINK-30913          
1 58388U 23178Q   26189.61589722  .00004863  00000+0  15506-3 0  9999
2 58388  53.1588 157.4108 0001267 120.7885 239.3243 15.34381538148434
STARLINK-30938          
1 58389U 23178R   26189.93782874  .00002095  00000+0  73131-4 0  9992
2 58389  53.1610 157.2773 0000945 104.4269 255.6839 15.34398770148465
STARLINK-30868          
1 58390U 23178S   26189.93525284  .00001382  00000+0  52018-4 0  9993
2 58390  53.1594 155.8479 0001066  84.9693 275.1432 15.34396110148487
STARLINK-30916          
1 58391U 23178T   26189.62429738  .00003105  00000+0  10302-3 0  9991
2 58391  53.1578 157.3602 0000769  79.5180 280.5909 15.34389259148435
STARLINK-30939          
1 58393U 23178V   26189.33852407  .00005896  00000+0  18556-3 0  9992
2 58393  53.1560 158.5206 0001279 147.3919 212.7163 15.34388077148269
STARLINK-30887          
1 58394U 23178W   26189.63481327  .00008262  00000+0  25535-3 0  9990
2 58394  53.1566 157.3529 0001028  64.9542 295.1568 15.34404966148416
STARLINK-30934          
1 58395U 23178X   26189.61376250  .00003053  00000+0  10138-3 0  9993
2 58395  53.1598 157.4713 0002442  75.8658 284.2616 15.34429286148367
STARLINK-30964          
1 58402U 23180A   26189.11410301 -.00000990  00000+0 -26452-4 0  9992
2 58402  43.0028  92.4349 0001506 282.3037  77.7646 15.27581661146040
STARLINK-30844          
1 58403U 23180B   26189.13852244  .00003377  00000+0  13220-3 0  9999
2 58403  43.0038  92.6217 0001576 258.9565 101.1110 15.27577345145928
STARLINK-30876          
1 58404U 23180C   26189.06928020  .00002265  00000+0  91784-4 0  9995
2 58404  43.0045  92.9569 0000985 307.9778  52.0985 15.27594507146030
STARLINK-30952          
1 58405U 23180D   26189.45133170 -.00000224  00000+0  14030-5 0  9997
2 58405  42.9982  90.6639 0002180  84.2235 275.8866 15.27571276145988
STARLINK-30925          
1 58406U 23180E   26189.45387982 -.00001454  00000+0 -43291-4 0  9997
2 58406  43.0063  90.6834 0002585 261.6813  98.3746 15.27583778145974
